{
  "norad_id": 55822,
  "name": "ONEWEB-0662",
  "history": [
    {
      "epoch": "2026-03-28T21:24:42.508224Z",
      "apogee_km": 1207.2038552181784,
      "perigee_km": 1204.3721692971012,
      "latitude_deg": 1.4727022848007057e-05,
      "longitude_deg": 158.3011953140788,
      "height_km": 1208.798947459034,
      "semi_major_axis_km": 7583.9250122576395,
      "eccentricity": 0.00018669,
      "inclination_deg": 87.894,
      "raan_deg": 305.7844,
      "arg_perigee_deg": 94.8722,
      "mean_anomaly_deg": 265.2621,
      "mean_motion_rev_day": 13.14503409
    },
    {
      "epoch": "2026-03-29T02:53:32.171136Z",
      "apogee_km": 1207.2048872475834,
      "perigee_km": 1204.3669832852074,
      "latitude_deg": -3.0355508948536605e-05,
      "longitude_deg": 75.82359031045488,
      "height_km": 1208.7987074681516,
      "semi_major_axis_km": 7583.922935266395,
      "eccentricity": 0.0001871,
      "inclination_deg": 87.894,
      "raan_deg": 305.7388,
      "arg_perigee_deg": 94.9359,
      "mean_anomaly_deg": 265.1984,
      "mean_motion_rev_day": 13.14503949
    },
    {
      "epoch": "2026-03-30T00:48:51.011136Z",
      "apogee_km": 1207.2202084416513,
      "perigee_km": 1204.353485227548,
      "latitude_deg": 4.7278301258824416e-05,
      "longitude_deg": 105.91249319473364,
      "height_km": 1208.7961697717587,
      "semi_major_axis_km": 7583.923846834599,
      "eccentricity": 0.000189,
      "inclination_deg": 87.894,
      "raan_deg": 305.5565,
      "arg_perigee_deg": 94.7497,
      "mean_anomaly_deg": 265.3849,
      "mean_motion_rev_day": 13.14503712
    },
    {
      "epoch": "2026-03-30T00:48:51.012000Z",
      "apogee_km": 1207.220511798605,
      "perigee_km": 1204.3531818705942,
      "latitude_deg": 4.2686211593188606e-05,
      "longitude_deg": 105.91248941686729,
      "height_km": 1208.796194895925,
      "semi_major_axis_km": 7583.923846834599,
      "eccentricity": 0.00018904,
      "inclination_deg": 87.894,
      "raan_deg": 305.5565,
      "arg_perigee_deg": 94.7497,
      "mean_anomaly_deg": 265.3849,
      "mean_motion_rev_day": 13.14503712
    },
    {
      "epoch": "2026-03-30T13:36:07.017696Z",
      "apogee_km": 1207.2246950797635,
      "perigee_km": 1204.3517525264833,
      "latitude_deg": -1.0758027134335963e-05,
      "longitude_deg": -86.53567775973609,
      "height_km": 1208.788550079175,
      "semi_major_axis_km": 7583.925223803123,
      "eccentricity": 0.00018941,
      "inclination_deg": 87.894,
      "raan_deg": 305.4502,
      "arg_perigee_deg": 94.3795,
      "mean_anomaly_deg": 265.7551,
      "mean_motion_rev_day": 13.14503354
    },
    {
      "epoch": "2026-03-30T20:54:33.260256Z",
      "apogee_km": 1207.2269042757316,
      "perigee_km": 1204.3466816976315,
      "latitude_deg": -6.683609240800656e-05,
      "longitude_deg": 163.49407682010965,
      "height_km": 1208.78658316913,
      "semi_major_axis_km": 7583.923792986681,
      "eccentricity": 0.00018989,
      "inclination_deg": 87.894,
      "raan_deg": 305.3894,
      "arg_perigee_deg": 94.347,
      "mean_anomaly_deg": 265.7876,
      "mean_motion_rev_day": 13.14503726
    },
    {
      "epoch": "2026-03-31T13:21:02.399328Z",
      "apogee_km": 1207.2521505190916,
      "perigee_km": 1204.3229355035974,
      "latitude_deg": 6.116218232339397e-05,
      "longitude_deg": -83.93925580215024,
      "height_km": 1208.7859175450071,
      "semi_major_axis_km": 7583.924543011344,
      "eccentricity": 0.00019312,
      "inclination_deg": 87.894,
      "raan_deg": 305.2527,
      "arg_perigee_deg": 94.2217,
      "mean_anomaly_deg": 265.9134,
      "mean_motion_rev_day": 13.14503531
    },
    {
      "epoch": "2026-04-01T20:24:24.283584Z",
      "apogee_km": 1207.2613800084018,
      "perigee_km": 1204.3263987542123,
      "latitude_deg": 1.1912089594091818e-05,
      "longitude_deg": 168.68583182477525,
      "height_km": 1208.7871166998352,
      "semi_major_axis_km": 7583.930889381307,
      "eccentricity": 0.0001935,
      "inclination_deg": 87.8938,
      "raan_deg": 304.9944,
      "arg_perigee_deg": 94.0121,
      "mean_anomaly_deg": 266.123,
      "mean_motion_rev_day": 13.14501881
    },
    {
      "epoch": "2026-04-02T20:09:19.846656Z",
      "apogee_km": 1207.2703983578376,
      "perigee_km": 1204.3217651756459,
      "latitude_deg": 1.0494538735991802e-06,
      "longitude_deg": 171.28169217297855,
      "height_km": 1208.781754618833,
      "semi_major_axis_km": 7583.933081766741,
      "eccentricity": 0.0001944,
      "inclination_deg": 87.8936,
      "raan_deg": 304.7971,
      "arg_perigee_deg": 93.7,
      "mean_anomaly_deg": 266.4352,
      "mean_motion_rev_day": 13.14501311
    },
    {
      "epoch": "2026-04-02T20:09:19.847520Z",
      "apogee_km": 1207.2707017151606,
      "perigee_km": 1204.3214618183229,
      "latitude_deg": 9.696611486291407e-05,
      "longitude_deg": 171.28169207311828,
      "height_km": 1208.78175857964,
      "semi_major_axis_km": 7583.933081766741,
      "eccentricity": 0.00019444,
      "inclination_deg": 87.8936,
      "raan_deg": 304.7971,
      "arg_perigee_deg": 93.7,
      "mean_anomaly_deg": 266.4353,
      "mean_motion_rev_day": 13.14501311
    },
    {
      "epoch": "2026-04-03T14:25:25.707936Z",
      "apogee_km": 1207.278767613534,
      "perigee_km": 1204.3134497680348,
      "latitude_deg": -2.823342045303577e-05,
      "longitude_deg": -103.6449830404048,
      "height_km": 1208.7787202189288,
      "semi_major_axis_km": 7583.933108690784,
      "eccentricity": 0.0001955,
      "inclination_deg": 87.8934,
      "raan_deg": 304.6451,
      "arg_perigee_deg": 93.5613,
      "mean_anomaly_deg": 266.574,
      "mean_motion_rev_day": 13.14501304
    },
    {
      "epoch": "2026-04-04T12:20:44.808864Z",
      "apogee_km": 1207.2780795685348,
      "perigee_km": 1204.314430131205,
      "latitude_deg": -2.4442274503455784e-05,
      "longitude_deg": -73.55737403951373,
      "height_km": 1208.7685844588812,
      "semi_major_axis_km": 7583.93325484987,
      "eccentricity": 0.00019539,
      "inclination_deg": 87.8932,
      "raan_deg": 304.4626,
      "arg_perigee_deg": 93.1652,
      "mean_anomaly_deg": 266.9701,
      "mean_motion_rev_day": 13.14501266
    },
    {
      "epoch": "2026-04-05T13:55:17.080320Z",
      "apogee_km": 1207.2953709542326,
      "perigee_km": 1204.2982003221487,
      "latitude_deg": 1.663112729952096e-05,
      "longitude_deg": -98.454892277475,
      "height_km": 1208.7618586753752,
      "semi_major_axis_km": 7583.933785638191,
      "eccentricity": 0.0001976,
      "inclination_deg": 87.8932,
      "raan_deg": 304.2499,
      "arg_perigee_deg": 92.8538,
      "mean_anomaly_deg": 267.2818,
      "mean_motion_rev_day": 13.14501128
    },
    {
      "epoch": "2026-04-05T19:24:06.858144Z",
      "apogee_km": 1207.2973878579642,
      "perigee_km": 1204.2971834545579,
      "latitude_deg": 2.3109870067409023e-06,
      "longitude_deg": 179.06712330510493,
      "height_km": 1208.7734376623634,
      "semi_major_axis_km": 7583.934285656261,
      "eccentricity": 0.0001978,
      "inclination_deg": 87.8932,
      "raan_deg": 304.2044,
      "arg_perigee_deg": 93.2746,
      "mean_anomaly_deg": 266.861,
      "mean_motion_rev_day": 13.14500998
    },
    {
      "epoch": "2026-04-06T06:21:46.355040Z",
      "apogee_km": 1207.3108816381082,
      "perigee_km": 1204.2765509585179,
      "latitude_deg": -6.203426320529379e-05,
      "longitude_deg": 14.111198450455056,
      "height_km": 1208.7626533373502,
      "semi_major_axis_km": 7583.930716298313,
      "eccentricity": 0.00020005,
      "inclination_deg": 87.893,
      "raan_deg": 304.1132,
      "arg_perigee_deg": 92.9661,
      "mean_anomaly_deg": 267.1697,
      "mean_motion_rev_day": 13.14501926
    },
    {
      "epoch": "2026-04-07T11:35:31.735680Z",
      "apogee_km": 1207.3182908466406,
      "perigee_km": 1204.2712187461993,
      "latitude_deg": 4.150148213532668e-05,
      "longitude_deg": -65.77149056225801,
      "height_km": 1208.7628017498575,
      "semi_major_axis_km": 7583.93175479642,
      "eccentricity": 0.00020089,
      "inclination_deg": 87.8929,
      "raan_deg": 303.87,
      "arg_perigee_deg": 92.9214,
      "mean_anomaly_deg": 267.2146,
      "mean_motion_rev_day": 13.14501656
    },
    {
      "epoch": "2026-04-07T20:43:34.688352Z",
      "apogee_km": 1207.3251911823172,
      "perigee_km": 1204.2673492877584,
      "latitude_deg": 5.709671960193559e-05,
      "longitude_deg": 156.7650797372586,
      "height_km": 1208.7600802586205,
      "semi_major_axis_km": 7583.9332702350375,
      "eccentricity": 0.0002016,
      "inclination_deg": 87.8928,
      "raan_deg": 303.794,
      "arg_perigee_deg": 92.7528,
      "mean_anomaly_deg": 267.3833,
      "mean_motion_rev_day": 13.14501262
    },
    {
      "epoch": "2026-04-08T13:10:03.868896Z",
      "apogee_km": 1207.320675889173,
      "perigee_km": 1204.2661720716105,
      "latitude_deg": 7.296320453186818e-05,
      "longitude_deg": -90.66863328396127,
      "height_km": 1208.7422046586305,
      "semi_major_axis_km": 7583.930423980391,
      "eccentricity": 0.00020138,
      "inclination_deg": 87.8925,
      "raan_deg": 303.6571,
      "arg_perigee_deg": 92.1916,
      "mean_anomaly_deg": 267.9445,
      "mean_motion_rev_day": 13.14502002
    },
    {
      "epoch": "2026-04-09T12:54:59.408640Z",
      "apogee_km": 1207.3164102905648,
      "perigee_km": 1204.2752532250288,
      "latitude_deg": -3.187635278459425e-05,
      "longitude_deg": -88.07308264083494,
      "height_km": 1208.7342194782354,
      "semi_major_axis_km": 7583.9328317577965,
      "eccentricity": 0.0002005,
      "inclination_deg": 87.8925,
      "raan_deg": 303.4594,
      "arg_perigee_deg": 91.8083,
      "mean_anomaly_deg": 268.3276,
      "mean_motion_rev_day": 13.14501376
    }
  ]
}